[{"OBJECT_NAME":"ONEWEB-0288","OBJECT_ID":"2021-075D","EPOCH":"2025-12-06T14:17:22.079616","MEAN_MOTION":13.12443716,"ECCENTRICITY":0.0001595,"INCLINATION":87.8946,"RA_OF_ASC_NODE":28.913,"ARG_OF_PERICENTER":96.6135,"MEAN_ANOMALY":263.5175,"EPHEMERIS_TYPE":0,"CLASSIFICATION_TYPE":"U","NORAD_CAT_ID":49078,"ELEMENT_SET_NO":999,"REV_AT_EPOCH":20992,"BSTAR":0.0013798024,"MEAN_MOTION_DOT":5.09e-6,"MEAN_MOTION_DDOT":0},{"OBJECT_NAME":"ONEWEB-0289","OBJECT_ID":"2021-075E","EPOCH":"2025-12-06T15:08:55.736160","MEAN_MOTION":13.17648713,"ECCENTRICITY":0.00015398,"INCLINATION":87.9115,"RA_OF_ASC_NODE":44.1709,"ARG_OF_PERICENTER":87.1663,"MEAN_ANOMALY":272.9644,"EPHEMERIS_TYPE":0,"CLASSIFICATION_TYPE":"U","NORAD_CAT_ID":49079,"ELEMENT_SET_NO":999,"REV_AT_EPOCH":20884,"BSTAR":0.00036207524,"MEAN_MOTION_DOT":1.53e-6,"MEAN_MOTION_DDOT":0},{"OBJECT_NAME":"ONEWEB-0290","OBJECT_ID":"2021-075F","EPOCH":"2025-12-06T14:30:14.439456","MEAN_MOTION":13.17650466,"ECCENTRICITY":0.00017762,"INCLINATION":87.9121,"RA_OF_ASC_NODE":44.1377,"ARG_OF_PERICENTER":81.4967,"MEAN_ANOMALY":278.6365,"EPHEMERIS_TYPE":0,"CLASSIFICATION_TYPE":"U","NORAD_CAT_ID":49080,"ELEMENT_SET_NO":999,"REV_AT_EPOCH":20825,"BSTAR":0.00016178767,"MEAN_MOTION_DOT":7.6e-7,"MEAN_MOTION_DDOT":0},{"OBJECT_NAME":"ONEWEB-0291","OBJECT_ID":"2021-075G","EPOCH":"2025-12-06T14:08:22.809696","MEAN_MOTION":13.17649317,"ECCENTRICITY":0.00013352,"INCLINATION":87.9127,"RA_OF_ASC_NODE":44.1473,"ARG_OF_PERICENTER":102.5398,"MEAN_ANOMALY":257.5883,"EPHEMERIS_TYPE":0,"CLASSIFICATION_TYPE":"U","NORAD_CAT_ID":49081,"ELEMENT_SET_NO":999,"REV_AT_EPOCH":20824,"BSTAR":0.0001278482,"MEAN_MOTION_DOT":6.3e-7,"MEAN_MOTION_DDOT":0},{"OBJECT_NAME":"ONEWEB-0293","OBJECT_ID":"2021-075H","EPOCH":"2025-12-06T14:44:49.547904","MEAN_MOTION":13.17649229,"ECCENTRICITY":0.0001655,"INCLINATION":87.9116,"RA_OF_ASC_NODE":44.1636,"ARG_OF_PERICENTER":97.09,"MEAN_ANOMALY":263.042,"EPHEMERIS_TYPE":0,"CLASSIFICATION_TYPE":"U","NORAD_CAT_ID":49082,"ELEMENT_SET_NO":999,"REV_AT_EPOCH":20827,"BSTAR":0.00028834842,"MEAN_MOTION_DOT":1.25e-6,"MEAN_MOTION_DDOT":0},{"OBJECT_NAME":"ONEWEB-0294","OBJECT_ID":"2021-075J","EPOCH":"2025-12-06T14:26:42.342144","MEAN_MOTION":13.12442915,"ECCENTRICITY":0.00014995,"INCLINATION":87.8948,"RA_OF_ASC_NODE":28.9128,"ARG_OF_PERICENTER":82.4818,"MEAN_ANOMALY":277.6481,"EPHEMERIS_TYPE":0,"CLASSIFICATION_TYPE":"U","NORAD_CAT_ID":49083,"ELEMENT_SET_NO":999,"REV_AT_EPOCH":20931,"BSTAR":0.001012748,"MEAN_MOTION_DOT":3.77e-6,"MEAN_MOTION_DDOT":0},{"OBJECT_NAME":"ONEWEB-0295","OBJECT_ID":"2021-075K","EPOCH":"2025-12-06T14:43:36.558048","MEAN_MOTION":13.17647781,"ECCENTRICITY":0.0001405,"INCLINATION":87.9115,"RA_OF_ASC_NODE":44.1681,"ARG_OF_PERICENTER":105.3751,"MEAN_ANOMALY":254.7536,"EPHEMERIS_TYPE":0,"CLASSIFICATION_TYPE":"U","NORAD_CAT_ID":49084,"ELEMENT_SET_NO":999,"REV_AT_EPOCH":20823,"BSTAR":0.0002665161,"MEAN_MOTION_DOT":1.16e-6,"MEAN_MOTION_DDOT":0},{"OBJECT_NAME":"ONEWEB-0296","OBJECT_ID":"2021-075L","EPOCH":"2025-12-06T10:19:06.755520","MEAN_MOTION":13.12445495,"ECCENTRICITY":0.00012353,"INCLINATION":87.8943,"RA_OF_ASC_NODE":28.9515,"ARG_OF_PERICENTER":94.4002,"MEAN_ANOMALY":265.7267,"EPHEMERIS_TYPE":0,"CLASSIFICATION_TYPE":"U","NORAD_CAT_ID":49085,"ELEMENT_SET_NO":999,"REV_AT_EPOCH":20929,"BSTAR":0.0011016867,"MEAN_MOTION_DOT":4.09e-6,"MEAN_MOTION_DDOT":0},{"OBJECT_NAME":"ONEWEB-0297","OBJECT_ID":"2021-075M","EPOCH":"2025-12-06T14:43:03.942048","MEAN_MOTION":13.12441943,"ECCENTRICITY":0.00017034,"INCLINATION":87.8937,"RA_OF_ASC_NODE":28.9475,"ARG_OF_PERICENTER":100.1812,"MEAN_ANOMALY":259.9508,"EPHEMERIS_TYPE":0,"CLASSIFICATION_TYPE":"U","NORAD_CAT_ID":49086,"ELEMENT_SET_NO":999,"REV_AT_EPOCH":20992,"BSTAR":-0.00016882097,"MEAN_MOTION_DOT":-4.8e-7,"MEAN_MOTION_DDOT":0},{"OBJECT_NAME":"ONEWEB-0298","OBJECT_ID":"2021-075N","EPOCH":"2025-12-06T14:49:53.168736","MEAN_MOTION":13.17648988,"ECCENTRICITY":0.00018132,"INCLINATION":87.9116,"RA_OF_ASC_NODE":44.1643,"ARG_OF_PERICENTER":101.9576,"MEAN_ANOMALY":258.1759,"EPHEMERIS_TYPE":0,"CLASSIFICATION_TYPE":"U","NORAD_CAT_ID":49087,"ELEMENT_SET_NO":999,"REV_AT_EPOCH":20826,"BSTAR":0.00015073337,"MEAN_MOTION_DOT":7.1e-7,"MEAN_MOTION_DDOT":0},{"OBJECT_NAME":"ONEWEB-0299","OBJECT_ID":"2021-075P","EPOCH":"2025-12-06T14:52:07.163904","MEAN_MOTION":13.17649451,"ECCENTRICITY":0.00016208,"INCLINATION":87.9127,"RA_OF_ASC_NODE":44.1251,"ARG_OF_PERICENTER":106.2317,"MEAN_ANOMALY":253.8993,"EPHEMERIS_TYPE":0,"CLASSIFICATION_TYPE":"U","NORAD_CAT_ID":49088,"ELEMENT_SET_NO":999,"REV_AT_EPOCH":20824,"BSTAR":0.00014493963,"MEAN_MOTION_DOT":6.9e-7,"MEAN_MOTION_DDOT":0},{"OBJECT_NAME":"ONEWEB-0300","OBJECT_ID":"2021-075Q","EPOCH":"2025-12-06T14:31:22.965024","MEAN_MOTION":13.12442991,"ECCENTRICITY":0.00020229,"INCLINATION":87.8948,"RA_OF_ASC_NODE":28.9085,"ARG_OF_PERICENTER":103.4414,"MEAN_ANOMALY":256.694,"EPHEMERIS_TYPE":0,"CLASSIFICATION_TYPE":"U","NORAD_CAT_ID":49089,"ELEMENT_SET_NO":999,"REV_AT_EPOCH":20994,"BSTAR":0.00071848481,"MEAN_MOTION_DOT":2.71e-6,"MEAN_MOTION_DDOT":0},{"OBJECT_NAME":"ONEWEB-0301","OBJECT_ID":"2021-075R","EPOCH":"2025-12-06T14:08:01.887936","MEAN_MOTION":13.124435,"ECCENTRICITY":0.00021476,"INCLINATION":87.8944,"RA_OF_ASC_NODE":28.9137,"ARG_OF_PERICENTER":103.6411,"MEAN_ANOMALY":256.4957,"EPHEMERIS_TYPE":0,"CLASSIFICATION_TYPE":"U","NORAD_CAT_ID":49090,"ELEMENT_SET_NO":999,"REV_AT_EPOCH":20930,"BSTAR":0.0015283084,"MEAN_MOTION_DOT":5.63e-6,"MEAN_MOTION_DDOT":0},{"OBJECT_NAME":"ONEWEB-0302","OBJECT_ID":"2021-075S","EPOCH":"2025-12-06T13:49:19.824096","MEAN_MOTION":13.12445078,"ECCENTRICITY":0.00014785,"INCLINATION":87.8946,"RA_OF_ASC_NODE":28.9241,"ARG_OF_PERICENTER":88.8751,"MEAN_ANOMALY":271.2547,"EPHEMERIS_TYPE":0,"CLASSIFICATION_TYPE":"U","NORAD_CAT_ID":49091,"ELEMENT_SET_NO":999,"REV_AT_EPOCH":20928,"BSTAR":0.00061546212,"MEAN_MOTION_DOT":2.34e-6,"MEAN_MOTION_DDOT":0},{"OBJECT_NAME":"ONEWEB-0304","OBJECT_ID":"2021-075T","EPOCH":"2025-12-06T14:15:40.649472","MEAN_MOTION":13.17649066,"ECCENTRICITY":0.00016071,"INCLINATION":87.9124,"RA_OF_ASC_NODE":44.1606,"ARG_OF_PERICENTER":102.4859,"MEAN_ANOMALY":257.6452,"EPHEMERIS_TYPE":0,"CLASSIFICATION_TYPE":"U","NORAD_CAT_ID":49092,"ELEMENT_SET_NO":999,"REV_AT_EPOCH":20821,"BSTAR":-1.7020707e-5,"MEAN_MOTION_DOT":6.0e-8,"MEAN_MOTION_DDOT":0},{"OBJECT_NAME":"ONEWEB-0305","OBJECT_ID":"2021-075U","EPOCH":"2025-12-06T10:27:14.546592","MEAN_MOTION":13.17650298,"ECCENTRICITY":0.00014371,"INCLINATION":87.9127,"RA_OF_ASC_NODE":44.1693,"ARG_OF_PERICENTER":112.7168,"MEAN_ANOMALY":247.4116,"EPHEMERIS_TYPE":0,"CLASSIFICATION_TYPE":"U","NORAD_CAT_ID":49093,"ELEMENT_SET_NO":999,"REV_AT_EPOCH":20822,"BSTAR":0.00014081969,"MEAN_MOTION_DOT":6.8e-7,"MEAN_MOTION_DDOT":0},{"OBJECT_NAME":"ONEWEB-0308","OBJECT_ID":"2021-075V","EPOCH":"2025-12-06T15:29:45.614976","MEAN_MOTION":13.12444511,"ECCENTRICITY":0.00017202,"INCLINATION":87.8945,"RA_OF_ASC_NODE":28.9032,"ARG_OF_PERICENTER":97.3783,"MEAN_ANOMALY":262.7541,"EPHEMERIS_TYPE":0,"CLASSIFICATION_TYPE":"U","NORAD_CAT_ID":49094,"ELEMENT_SET_NO":999,"REV_AT_EPOCH":20930,"BSTAR":-0.00012824638,"MEAN_MOTION_DOT":-3.3e-7,"MEAN_MOTION_DDOT":0},{"OBJECT_NAME":"ONEWEB-0309","OBJECT_ID":"2021-075W","EPOCH":"2025-12-06T14:10:48.527616","MEAN_MOTION":13.17649312,"ECCENTRICITY":0.00014845,"INCLINATION":87.9127,"RA_OF_ASC_NODE":44.1542,"ARG_OF_PERICENTER":88.0777,"MEAN_ANOMALY":272.0525,"EPHEMERIS_TYPE":0,"CLASSIFICATION_TYPE":"U","NORAD_CAT_ID":49095,"ELEMENT_SET_NO":999,"REV_AT_EPOCH":20821,"BSTAR":0.00012224551,"MEAN_MOTION_DOT":6.0e-7,"MEAN_MOTION_DDOT":0},{"OBJECT_NAME":"ONEWEB-0310","OBJECT_ID":"2021-075X","EPOCH":"2025-12-06T14:01:00.374304","MEAN_MOTION":13.12444867,"ECCENTRICITY":0.00016582,"INCLINATION":87.8939,"RA_OF_ASC_NODE":28.9531,"ARG_OF_PERICENTER":95.1559,"MEAN_ANOMALY":264.9759,"EPHEMERIS_TYPE":0,"CLASSIFICATION_TYPE":"U","NORAD_CAT_ID":49096,"ELEMENT_SET_NO":999,"REV_AT_EPOCH":20992,"BSTAR":0.0012173,"MEAN_MOTION_DOT":4.51e-6,"MEAN_MOTION_DDOT":0},{"OBJECT_NAME":"ONEWEB-0311","OBJECT_ID":"2021-075Y","EPOCH":"2025-12-06T14:20:31.604064","MEAN_MOTION":13.17648224,"ECCENTRICITY":0.00015873,"INCLINATION":87.9124,"RA_OF_ASC_NODE":44.149,"ARG_OF_PERICENTER":112.6583,"MEAN_ANOMALY":247.4716,"EPHEMERIS_TYPE":0,"CLASSIFICATION_TYPE":"U","NORAD_CAT_ID":49097,"ELEMENT_SET_NO":999,"REV_AT_EPOCH":20826,"BSTAR":-9.107969e-6,"MEAN_MOTION_DOT":9.0e-8,"MEAN_MOTION_DDOT":0},{"OBJECT_NAME":"ONEWEB-0312","OBJECT_ID":"2021-075Z","EPOCH":"2025-12-06T14:42:24.052896","MEAN_MOTION":13.17649365,"ECCENTRICITY":0.00013637,"INCLINATION":87.9112,"RA_OF_ASC_NODE":44.1723,"ARG_OF_PERICENTER":103.5207,"MEAN_ANOMALY":256.6077,"EPHEMERIS_TYPE":0,"CLASSIFICATION_TYPE":"U","NORAD_CAT_ID":49098,"ELEMENT_SET_NO":999,"REV_AT_EPOCH":20824,"BSTAR":0.0001182132,"MEAN_MOTION_DOT":5.9e-7,"MEAN_MOTION_DDOT":0},{"OBJECT_NAME":"ONEWEB-0313","OBJECT_ID":"2021-075AA","EPOCH":"2025-12-06T14:49:29.915904","MEAN_MOTION":13.17651635,"ECCENTRICITY":0.00016397,"INCLINATION":87.9113,"RA_OF_ASC_NODE":44.1791,"ARG_OF_PERICENTER":104.3626,"MEAN_ANOMALY":255.7688,"EPHEMERIS_TYPE":0,"CLASSIFICATION_TYPE":"U","NORAD_CAT_ID":49099,"ELEMENT_SET_NO":999,"REV_AT_EPOCH":20823,"BSTAR":0.00022357079,"MEAN_MOTION_DOT":1.0e-6,"MEAN_MOTION_DDOT":0},{"OBJECT_NAME":"ONEWEB-0314","OBJECT_ID":"2021-075AB","EPOCH":"2025-12-06T14:01:05.335392","MEAN_MOTION":13.17649472,"ECCENTRICITY":0.00013252,"INCLINATION":87.9125,"RA_OF_ASC_NODE":44.1372,"ARG_OF_PERICENTER":105.4819,"MEAN_ANOMALY":254.6459,"EPHEMERIS_TYPE":0,"CLASSIFICATION_TYPE":"U","NORAD_CAT_ID":49100,"ELEMENT_SET_NO":999,"REV_AT_EPOCH":20820,"BSTAR":-0.00011962162,"MEAN_MOTION_DOT":-3.4e-7,"MEAN_MOTION_DDOT":0}]
